{
  "type": "FeatureCollection",
  "features": [
    {
      "type": "Feature",
      "properties": {
        "norad_id": 30665,
        "name": "FENGYUN 1C DEB",
        "group": "fengyun-1c-debris",
        "lat": 61.00147127111258,
        "lon": -48.19276520046811,
        "alt_km": 862.4355893595293,
        "timestamp": "2025-12-22T22:44:21.253383+00:00",
        "meta_object_name": "FENGYUN 1C DEB",
        "meta_object_id": "1999-025APX",
        "meta_epoch": "2025-12-20T21:16:17.931360",
        "meta_mean_motion": 14.12381178,
        "meta_eccentricity": 0.0067638,
        "meta_inclination": 99.2086,
        "meta_ra_of_asc_node": 326.7083,
        "meta_arg_of_pericenter": 179.169,
        "meta_mean_anomaly": 209.6706,
        "meta_ephemeris_type": 0,
        "meta_classification_type": "U",
        "meta_norad_cat_id": 30665,
        "meta_element_set_no": 999,
        "meta_rev_at_epoch": 96085,
        "meta_bstar": 0.0010029,
        "meta_mean_motion_dot": 1.843e-05,
        "meta_mean_motion_ddot": 0,
        "tle_line1": "1 30665U 99025APX 25354.88631865  .00001843  00000+0  10029-2 0  9998",
        "tle_line2": "2 30665  99.2086 326.7083 0067638 179.1690 209.6706 14.12381178960852"
      },
      "geometry": {
        "type": "Point",
        "coordinates": [
          -48.19276520046811,
          61.00147127111258
        ]
      }
    },
    {
      "type": "Feature",
      "properties": {
        "norad_id": 30666,
        "name": "FENGYUN 1C DEB",
        "group": "fengyun-1c-debris",
        "lat": -52.98665495979186,
        "lon": 148.3543915777649,
        "alt_km": 912.4169017474587,
        "timestamp": "2025-12-22T22:44:21.253393+00:00",
        "meta_object_name": "FENGYUN 1C DEB",
        "meta_object_id": "1999-025APY",
        "meta_epoch": "2025-12-22T10:22:15.734784",
        "meta_mean_motion": 14.02563307,
        "meta_eccentricity": 0.00614048,
        "meta_inclination": 98.8229,
        "meta_ra_of_asc_node": 339.7439,
        "meta_arg_of_pericenter": 117.5217,
        "meta_mean_anomaly": 35.0472,
        "meta_ephemeris_type": 0,
        "meta_classification_type": "U",
        "meta_norad_cat_id": 30666,
        "meta_element_set_no": 999,
        "meta_rev_at_epoch": 96246,
        "meta_bstar": 0.00035413431,
        "meta_mean_motion_dot": 5.13e-06,
        "meta_mean_motion_ddot": 0,
        "tle_line1": "1 30666U 99025APY 25356.43212656  .00000513  00000+0  35413-3 0  9993",
        "tle_line2": "2 30666  98.8229 339.7439 0061404 117.5217  35.0472 14.02563307962467"
      },
      "geometry": {
        "type": "Point",
        "coordinates": [
          148.3543915777649,
          -52.98665495979186
        ]
      }
    },
    {
      "type": "Feature",
      "properties": {
        "norad_id": 30668,
        "name": "FENGYUN 1C DEB",
        "group": "fengyun-1c-debris",
        "lat": 25.929648900492094,
        "lon": -105.31881688248697,
        "alt_km": 824.7165116141095,
        "timestamp": "2025-12-22T22:44:21.253403+00:00",
        "meta_object_name": "FENGYUN 1C DEB",
        "meta_object_id": "1999-025AQA",
        "meta_epoch": "2025-12-20T10:48:16.155936",
        "meta_mean_motion": 14.12372255,
        "meta_eccentricity": 0.00797132,
        "meta_inclination": 99.1312,
        "meta_ra_of_asc_node": 67.6525,
        "meta_arg_of_pericenter": 224.7194,
        "meta_mean_anomaly": 199.1455,
        "meta_ephemeris_type": 0,
        "meta_classification_type": "U",
        "meta_norad_cat_id": 30668,
        "meta_element_set_no": 999,
        "meta_rev_at_epoch": 96164,
        "meta_bstar": 0.0012545551,
        "meta_mean_motion_dot": 2.337e-05,
        "meta_mean_motion_ddot": 0,
        "tle_line1": "1 30668U 99025AQA 25354.45018699  .00002337  00000+0  12546-2 0  9993",
        "tle_line2": "2 30668  99.1312  67.6525 0079713 224.7194 199.1455 14.12372255961649"
      },
      "geometry": {
        "type": "Point",
        "coordinates": [
          -105.31881688248697,
          25.929648900492094
        ]
      }
    },
    {
      "type": "Feature",
      "properties": {
        "norad_id": 30669,
        "name": "FENGYUN 1C DEB",
        "group": "fengyun-1c-debris",
        "lat": -37.994434488434266,
        "lon": 106.27549947057894,
        "alt_km": 861.3062435444162,
        "timestamp": "2025-12-22T22:44:21.253414+00:00",
        "meta_object_name": "FENGYUN 1C DEB",
        "meta_object_id": "1999-025AQB",
        "meta_epoch": "2025-12-21T01:29:58.279776",
        "meta_mean_motion": 14.02754852,
        "meta_eccentricity": 0.01181216,
        "meta_inclination": 98.6354,
        "meta_ra_of_asc_node": 291.3047,
        "meta_arg_of_pericenter": 153.0273,
        "meta_mean_anomaly": 270.3448,
        "meta_ephemeris_type": 0,
        "meta_classification_type": "U",
        "meta_norad_cat_id": 30669,
        "meta_element_set_no": 999,
        "meta_rev_at_epoch": 95570,
        "meta_bstar": 0.0010787169,
        "meta_mean_motion_dot": 1.733e-05,
        "meta_mean_motion_ddot": 0,
        "tle_line1": "1 30669U 99025AQB 25355.06248009  .00001733  00000+0  10787-2 0  9996",
        "tle_line2": "2 30669  98.6354 291.3047 0118121 153.0273 270.3448 14.02754852955704"
      },
      "geometry": {
        "type": "Point",
        "coordinates": [
          106.27549947057894,
          -37.994434488434266
        ]
      }
    },
    {
      "type": "Feature",
      "properties": {
        "norad_id": 30670,
        "name": "FENGYUN 1C DEB",
        "group": "fengyun-1c-debris",
        "lat": -77.08423801533401,
        "lon": 179.1995518395721,
        "alt_km": 868.8479604565546,
        "timestamp": "2025-12-22T22:44:21.253424+00:00",
        "meta_object_name": "FENGYUN 1C DEB",
        "meta_object_id": "1999-025AQC",
        "meta_epoch": "2025-12-21T20:20:06.431424",
        "meta_mean_motion": 14.15820847,
        "meta_eccentricity": 0.003959,
        "meta_inclination": 98.7094,
        "meta_ra_of_asc_node": 40.0711,
        "meta_arg_of_pericenter": 44.0879,
        "meta_mean_anomaly": 12.2318,
        "meta_ephemeris_type": 0,
        "meta_classification_type": "U",
        "meta_norad_cat_id": 30670,
        "meta_element_set_no": 999,
        "meta_rev_at_epoch": 97281,
        "meta_bstar": 8.9237632e-05,
        "meta_mean_motion_dot": 1.34e-06,
        "meta_mean_motion_ddot": 0,
        "tle_line1": "1 30670U 99025AQC 25355.84729666  .00000134  00000+0  89238-4 0  9990",
        "tle_line2": "2 30670  98.7094  40.0711 0039590  44.0879  12.2318 14.15820847972810"
      },
      "geometry": {
        "type": "Point",
        "coordinates": [
          179.1995518395721,
          -77.08423801533401
        ]
      }
    },
    {
      "type": "Feature",
      "properties": {
        "norad_id": 30671,
        "name": "FENGYUN 1C DEB",
        "group": "fengyun-1c-debris",
        "lat": -17.6730778702401,
        "lon": -121.28104994247991,
        "alt_km": 1003.745437295971,
        "timestamp": "2025-12-22T22:44:21.253434+00:00",
        "meta_object_name": "FENGYUN 1C DEB",
        "meta_object_id": "1999-025AQD",
        "meta_epoch": "2025-12-22T03:11:08.399040",
        "meta_mean_motion": 13.95491658,
        "meta_eccentricity": 0.01257678,
        "meta_inclination": 99.252,
        "meta_ra_of_asc_node": 60.8783,
        "meta_arg_of_pericenter": 7.5381,
        "meta_mean_anomaly": 59.7634,
        "meta_ephemeris_type": 0,
        "meta_classification_type": "U",
        "meta_norad_cat_id": 30671,
        "meta_element_set_no": 999,
        "meta_rev_at_epoch": 95326,
        "meta_bstar": 0.0012094625,
        "meta_mean_motion_dot": 1.709e-05,
        "meta_mean_motion_ddot": 0,
        "tle_line1": "1 30671U 99025AQD 25356.13273610  .00001709  00000+0  12095-2 0  9991",
        "tle_line2": "2 30671  99.2520  60.8783 0125767   7.5381  59.7634 13.95491658953260"
      },
      "geometry": {
        "type": "Point",
        "coordinates": [
          -121.28104994247991,
          -17.6730778702401
        ]
      }
    },
    {
      "type": "Feature",
      "properties": {
        "norad_id": 30673,
        "name": "FENGYUN 1C DEB",
        "group": "fengyun-1c-debris",
        "lat": -50.03384402854974,
        "lon": 56.70773307799419,
        "alt_km": 925.7913069959905,
        "timestamp": "2025-12-22T22:44:21.253444+00:00",
        "meta_object_name": "FENGYUN 1C DEB",
        "meta_object_id": "1999-025AQF",
        "meta_epoch": "2025-12-22T09:23:36.876192",
        "meta_mean_motion": 14.03457488,
        "meta_eccentricity": 0.00528135,
        "meta_inclination": 98.918,
        "meta_ra_of_asc_node": 45.3645,
        "meta_arg_of_pericenter": 116.1688,
        "meta_mean_anomaly": 265.2233,
        "meta_ephemeris_type": 0,
        "meta_classification_type": "U",
        "meta_norad_cat_id": 30673,
        "meta_element_set_no": 999,
        "meta_rev_at_epoch": 96667,
        "meta_bstar": 3.58572e-06,
        "meta_mean_motion_dot": -3.7e-07,
        "meta_mean_motion_ddot": 0,
        "tle_line1": "1 30673U 99025AQF 25356.39139903 -.00000037  00000+0  35857-5 0  9995",
        "tle_line2": "2 30673  98.9180  45.3645 0052813 116.1688 265.2233 14.03457488966674"
      },
      "geometry": {
        "type": "Point",
        "coordinates": [
          56.70773307799419,
          -50.03384402854974
        ]
      }
    }
  ]
}